[{"OBJECT_NAME":"STARLINK-30226","OBJECT_ID":"2023-113C","EPOCH":"2026-03-21T23:08:21.737472","MEAN_MOTION":15.26744962,"ECCENTRICITY":0.00015373,"INCLINATION":43.0015,"RA_OF_ASC_NODE":306.6546,"ARG_OF_PERICENTER":251.4424,"MEAN_ANOMALY":108.6261,"EPHEMERIS_TYPE":0,"CLASSIFICATION_TYPE":"U","NORAD_CAT_ID":57497,"ELEMENT_SET_NO":999,"REV_AT_EPOCH":14545,"BSTAR":0.00017831481,"MEAN_MOTION_DOT":4.527e-5,"MEAN_MOTION_DDOT":0},{"OBJECT_NAME":"STARLINK-30203","OBJECT_ID":"2023-113D","EPOCH":"2026-03-21T16:18:21.405024","MEAN_MOTION":15.26761176,"ECCENTRICITY":0.00014077,"INCLINATION":43.0019,"RA_OF_ASC_NODE":307.9473,"ARG_OF_PERICENTER":262.6905,"MEAN_ANOMALY":97.3787,"EPHEMERIS_TYPE":0,"CLASSIFICATION_TYPE":"U","NORAD_CAT_ID":57498,"ELEMENT_SET_NO":999,"REV_AT_EPOCH":14553,"BSTAR":0.00016880747,"MEAN_MOTION_DOT":4.274e-5,"MEAN_MOTION_DDOT":0},{"OBJECT_NAME":"STARLINK-30169","OBJECT_ID":"2023-113E","EPOCH":"2026-03-22T20:10:26.366016","MEAN_MOTION":15.27572144,"ECCENTRICITY":0.00014455,"INCLINATION":43.002,"RA_OF_ASC_NODE":287.6173,"ARG_OF_PERICENTER":269.3199,"MEAN_ANOMALY":90.7487,"EPHEMERIS_TYPE":0,"CLASSIFICATION_TYPE":"U","NORAD_CAT_ID":57499,"ELEMENT_SET_NO":999,"REV_AT_EPOCH":14569,"BSTAR":-8.3782104e-5,"MEAN_MOTION_DOT":-2.566e-5,"MEAN_MOTION_DDOT":0},{"OBJECT_NAME":"STARLINK-30164","OBJECT_ID":"2023-113F","EPOCH":"2026-03-22T21:09:07.463232","MEAN_MOTION":15.26727938,"ECCENTRICITY":4.672e-5,"INCLINATION":42.999,"RA_OF_ASC_NODE":301.4819,"ARG_OF_PERICENTER":233.2957,"MEAN_ANOMALY":126.7852,"EPHEMERIS_TYPE":0,"CLASSIFICATION_TYPE":"U","NORAD_CAT_ID":57500,"ELEMENT_SET_NO":999,"REV_AT_EPOCH":14569,"BSTAR":-8.3295093e-5,"MEAN_MOTION_DOT":-2.492e-5,"MEAN_MOTION_DDOT":0},{"OBJECT_NAME":"STARLINK-30072","OBJECT_ID":"2023-113G","EPOCH":"2026-03-22T21:46:37.177536","MEAN_MOTION":15.26714226,"ECCENTRICITY":0.00012591,"INCLINATION":42.9991,"RA_OF_ASC_NODE":301.6627,"ARG_OF_PERICENTER":289.1549,"MEAN_ANOMALY":70.9166,"EPHEMERIS_TYPE":0,"CLASSIFICATION_TYPE":"U","NORAD_CAT_ID":57501,"ELEMENT_SET_NO":999,"REV_AT_EPOCH":14558,"BSTAR":-0.00036424674,"MEAN_MOTION_DOT":-0.00010009,"MEAN_MOTION_DDOT":0},{"OBJECT_NAME":"STARLINK-30230","OBJECT_ID":"2023-113J","EPOCH":"2026-03-22T20:53:10.736160","MEAN_MOTION":15.26756519,"ECCENTRICITY":0.00020822,"INCLINATION":43.0027,"RA_OF_ASC_NODE":301.395,"ARG_OF_PERICENTER":266.5603,"MEAN_ANOMALY":93.501,"EPHEMERIS_TYPE":0,"CLASSIFICATION_TYPE":"U","NORAD_CAT_ID":57503,"ELEMENT_SET_NO":999,"REV_AT_EPOCH":14558,"BSTAR":2.9028327e-5,"MEAN_MOTION_DOT":5.19e-6,"MEAN_MOTION_DDOT":0},{"OBJECT_NAME":"STARLINK-30213","OBJECT_ID":"2023-113K","EPOCH":"2026-03-22T21:32:43.855584","MEAN_MOTION":15.26713628,"ECCENTRICITY":0.00014747,"INCLINATION":43.0001,"RA_OF_ASC_NODE":301.5904,"ARG_OF_PERICENTER":265.3663,"MEAN_ANOMALY":94.702,"EPHEMERIS_TYPE":0,"CLASSIFICATION_TYPE":"U","NORAD_CAT_ID":57504,"ELEMENT_SET_NO":999,"REV_AT_EPOCH":14569,"BSTAR":-0.00025808659,"MEAN_MOTION_DOT":-7.17e-5,"MEAN_MOTION_DDOT":0},{"OBJECT_NAME":"STARLINK-30227","OBJECT_ID":"2023-113L","EPOCH":"2026-03-22T20:04:50.573280","MEAN_MOTION":15.19682195,"ECCENTRICITY":0.00053054,"INCLINATION":43.0031,"RA_OF_ASC_NODE":289.0017,"ARG_OF_PERICENTER":275.7338,"MEAN_ANOMALY":84.2906,"EPHEMERIS_TYPE":0,"CLASSIFICATION_TYPE":"U","NORAD_CAT_ID":57505,"ELEMENT_SET_NO":999,"REV_AT_EPOCH":14583,"BSTAR":0.0027210052,"MEAN_MOTION_DOT":0.00059437,"MEAN_MOTION_DDOT":0},{"OBJECT_NAME":"STARLINK-30212","OBJECT_ID":"2023-113M","EPOCH":"2026-03-22T16:00:00.999936","MEAN_MOTION":15.2753011,"ECCENTRICITY":0.00012285,"INCLINATION":43.0007,"RA_OF_ASC_NODE":303.2003,"ARG_OF_PERICENTER":246.7693,"MEAN_ANOMALY":154.1119,"EPHEMERIS_TYPE":0,"CLASSIFICATION_TYPE":"U","NORAD_CAT_ID":57506,"ELEMENT_SET_NO":999,"REV_AT_EPOCH":579,"BSTAR":0.0010908751,"MEAN_MOTION_DOT":0.00029832,"MEAN_MOTION_DDOT":0},{"OBJECT_NAME":"STARLINK-30219","OBJECT_ID":"2023-113N","EPOCH":"2026-03-22T22:00:01.999584","MEAN_MOTION":15.28015038,"ECCENTRICITY":0.00014729,"INCLINATION":43,"RA_OF_ASC_NODE":302.1937,"ARG_OF_PERICENTER":240.4391,"MEAN_ANOMALY":292.8074,"EPHEMERIS_TYPE":0,"CLASSIFICATION_TYPE":"U","NORAD_CAT_ID":57507,"ELEMENT_SET_NO":999,"REV_AT_EPOCH":578,"BSTAR":0.035646006,"MEAN_MOTION_DOT":0.01072521,"MEAN_MOTION_DDOT":0},{"OBJECT_NAME":"STARLINK-30074","OBJECT_ID":"2023-113P","EPOCH":"2026-03-22T21:25:06.640608","MEAN_MOTION":15.2672982,"ECCENTRICITY":0.00014252,"INCLINATION":42.999,"RA_OF_ASC_NODE":301.5584,"ARG_OF_PERICENTER":270.7467,"MEAN_ANOMALY":89.3221,"EPHEMERIS_TYPE":0,"CLASSIFICATION_TYPE":"U","NORAD_CAT_ID":57508,"ELEMENT_SET_NO":999,"REV_AT_EPOCH":14548,"BSTAR":-0.00015384098,"MEAN_MOTION_DOT":-4.383e-5,"MEAN_MOTION_DDOT":0},{"OBJECT_NAME":"STARLINK-30082","OBJECT_ID":"2023-113Q","EPOCH":"2026-03-22T21:04:56.485920","MEAN_MOTION":15.27557575,"ECCENTRICITY":0.00021677,"INCLINATION":43.0019,"RA_OF_ASC_NODE":301.466,"ARG_OF_PERICENTER":263.8407,"MEAN_ANOMALY":96.2198,"EPHEMERIS_TYPE":0,"CLASSIFICATION_TYPE":"U","NORAD_CAT_ID":57509,"ELEMENT_SET_NO":999,"REV_AT_EPOCH":14569,"BSTAR":3.0615494e-5,"MEAN_MOTION_DOT":5.8e-6,"MEAN_MOTION_DDOT":0},{"OBJECT_NAME":"STARLINK-30153","OBJECT_ID":"2023-113R","EPOCH":"2026-03-22T16:00:00.999936","MEAN_MOTION":15.2757059,"ECCENTRICITY":0.00016604,"INCLINATION":43.0011,"RA_OF_ASC_NODE":302.4383,"ARG_OF_PERICENTER":250.7297,"MEAN_ANOMALY":122.5316,"EPHEMERIS_TYPE":0,"CLASSIFICATION_TYPE":"U","NORAD_CAT_ID":57510,"ELEMENT_SET_NO":999,"REV_AT_EPOCH":569,"BSTAR":0.00050353859,"MEAN_MOTION_DOT":0.00013616,"MEAN_MOTION_DDOT":0},{"OBJECT_NAME":"STARLINK-30147","OBJECT_ID":"2023-113S","EPOCH":"2026-03-22T20:53:48.896448","MEAN_MOTION":15.27606393,"ECCENTRICITY":0.00016647,"INCLINATION":43.0027,"RA_OF_ASC_NODE":301.4151,"ARG_OF_PERICENTER":278.1601,"MEAN_ANOMALY":81.9062,"EPHEMERIS_TYPE":0,"CLASSIFICATION_TYPE":"U","NORAD_CAT_ID":57511,"ELEMENT_SET_NO":999,"REV_AT_EPOCH":14569,"BSTAR":0.00030554481,"MEAN_MOTION_DOT":8.162e-5,"MEAN_MOTION_DDOT":0},{"OBJECT_NAME":"STARLINK-30157","OBJECT_ID":"2023-113T","EPOCH":"2026-03-22T19:33:20.276928","MEAN_MOTION":15.27287956,"ECCENTRICITY":0.00011239,"INCLINATION":43,"RA_OF_ASC_NODE":276.15,"ARG_OF_PERICENTER":286.5482,"MEAN_ANOMALY":73.5246,"EPHEMERIS_TYPE":0,"CLASSIFICATION_TYPE":"U","NORAD_CAT_ID":57512,"ELEMENT_SET_NO":999,"REV_AT_EPOCH":14598,"BSTAR":0.001794081,"MEAN_MOTION_DOT":0.00048996,"MEAN_MOTION_DDOT":0},{"OBJECT_NAME":"STARLINK-30168","OBJECT_ID":"2023-113U","EPOCH":"2026-03-22T16:05:49.535808","MEAN_MOTION":15.27557754,"ECCENTRICITY":0.00013783,"INCLINATION":43.0028,"RA_OF_ASC_NODE":302.4618,"ARG_OF_PERICENTER":246.9779,"MEAN_ANOMALY":113.0928,"EPHEMERIS_TYPE":0,"CLASSIFICATION_TYPE":"U","NORAD_CAT_ID":57513,"ELEMENT_SET_NO":999,"REV_AT_EPOCH":14550,"BSTAR":-1.6318682e-5,"MEAN_MOTION_DOT":-7.11e-6,"MEAN_MOTION_DDOT":0},{"OBJECT_NAME":"STARLINK-30231","OBJECT_ID":"2023-113V","EPOCH":"2026-03-22T16:07:38.247744","MEAN_MOTION":15.26724995,"ECCENTRICITY":9.395e-5,"INCLINATION":43.004,"RA_OF_ASC_NODE":302.4866,"ARG_OF_PERICENTER":256.7409,"MEAN_ANOMALY":103.3337,"EPHEMERIS_TYPE":0,"CLASSIFICATION_TYPE":"U","NORAD_CAT_ID":57514,"ELEMENT_SET_NO":999,"REV_AT_EPOCH":14566,"BSTAR":-0.00015205433,"MEAN_MOTION_DOT":-4.334e-5,"MEAN_MOTION_DDOT":0},{"OBJECT_NAME":"STARLINK-30081","OBJECT_ID":"2023-113W","EPOCH":"2026-03-22T08:09:28.287072","MEAN_MOTION":15.27571589,"ECCENTRICITY":6.475e-5,"INCLINATION":43.0013,"RA_OF_ASC_NODE":304.3142,"ARG_OF_PERICENTER":324.2434,"MEAN_ANOMALY":35.8375,"EPHEMERIS_TYPE":0,"CLASSIFICATION_TYPE":"U","NORAD_CAT_ID":57515,"ELEMENT_SET_NO":999,"REV_AT_EPOCH":14561,"BSTAR":-0.00013852256,"MEAN_MOTION_DOT":-4.07e-5,"MEAN_MOTION_DDOT":0},{"OBJECT_NAME":"STARLINK-30149","OBJECT_ID":"2023-113X","EPOCH":"2026-03-22T08:14:40.261056","MEAN_MOTION":15.26718834,"ECCENTRICITY":9.485e-5,"INCLINATION":43.003,"RA_OF_ASC_NODE":304.3319,"ARG_OF_PERICENTER":261.5921,"MEAN_ANOMALY":98.4823,"EPHEMERIS_TYPE":0,"CLASSIFICATION_TYPE":"U","NORAD_CAT_ID":57516,"ELEMENT_SET_NO":999,"REV_AT_EPOCH":14551,"BSTAR":-8.7812005e-5,"MEAN_MOTION_DOT":-2.613e-5,"MEAN_MOTION_DDOT":0},{"OBJECT_NAME":"STARLINK-30259","OBJECT_ID":"2023-115A","EPOCH":"2026-03-22T15:42:38.827584","MEAN_MOTION":15.27582116,"ECCENTRICITY":0.00016485,"INCLINATION":43.0037,"RA_OF_ASC_NODE":288.4134,"ARG_OF_PERICENTER":261.0871,"MEAN_ANOMALY":98.9794,"EPHEMERIS_TYPE":0,"CLASSIFICATION_TYPE":"U","NORAD_CAT_ID":57521,"ELEMENT_SET_NO":999,"REV_AT_EPOCH":14555,"BSTAR":4.0003007e-5,"MEAN_MOTION_DOT":8.39e-6,"MEAN_MOTION_DDOT":0},{"OBJECT_NAME":"STARLINK-30256","OBJECT_ID":"2023-115B","EPOCH":"2026-03-21T21:24:14.309856","MEAN_MOTION":15.27581751,"ECCENTRICITY":0.00012993,"INCLINATION":43.0014,"RA_OF_ASC_NODE":293.0027,"ARG_OF_PERICENTER":270.3021,"MEAN_ANOMALY":89.7681,"EPHEMERIS_TYPE":0,"CLASSIFICATION_TYPE":"U","NORAD_CAT_ID":57522,"ELEMENT_SET_NO":999,"REV_AT_EPOCH":14421,"BSTAR":4.6266554e-5,"MEAN_MOTION_DOT":1.011e-5,"MEAN_MOTION_DDOT":0},{"OBJECT_NAME":"STARLINK-30261","OBJECT_ID":"2023-115C","EPOCH":"2026-03-22T22:19:39.676512","MEAN_MOTION":15.27557404,"ECCENTRICITY":0.00012775,"INCLINATION":43.0026,"RA_OF_ASC_NODE":287.034,"ARG_OF_PERICENTER":278.9954,"MEAN_ANOMALY":81.0753,"EPHEMERIS_TYPE":0,"CLASSIFICATION_TYPE":"U","NORAD_CAT_ID":57523,"ELEMENT_SET_NO":999,"REV_AT_EPOCH":14437,"BSTAR":-0.00011826223,"MEAN_MOTION_DOT":-3.513e-5,"MEAN_MOTION_DDOT":0},{"OBJECT_NAME":"STARLINK-30260","OBJECT_ID":"2023-115D","EPOCH":"2026-03-22T20:19:35.122656","MEAN_MOTION":15.27559292,"ECCENTRICITY":0.00012739,"INCLINATION":42.999,"RA_OF_ASC_NODE":287.2923,"ARG_OF_PERICENTER":198.8344,"MEAN_ANOMALY":161.2461,"EPHEMERIS_TYPE":0,"CLASSIFICATION_TYPE":"U","NORAD_CAT_ID":57524,"ELEMENT_SET_NO":999,"REV_AT_EPOCH":14436,"BSTAR":1.4925741e-5,"MEAN_MOTION_DOT":1.48e-6,"MEAN_MOTION_DDOT":0}]
